SES-2                   
1 37809U 11049A   26115.86780985 -.00000209  00000+0  00000+0 0  9998
2 37809   0.0584  75.7990 0002762 315.3351  48.1532  1.00272686 53431
QUETZSAT 1              
1 37826U 11054A   26115.86780985 -.00000255  00000+0  00000+0 0  9994
2 37826   0.0543  61.9459 0002510 344.7640  42.5768  1.00272230 49349
SES-4                   
1 38087U 12007A   26115.34878478 -.00000182  00000+0  00000+0 0  9990
2 38087   0.0230  52.1996 0002597   2.1421 262.5989  1.00271592 51697
SES-5                   
1 38652U 12036A   26115.63936997  .00000020  00000+0  00000+0 0  9993
2 38652   0.0576 301.7705 0001980  87.1365  59.8945  1.00271793 43934
ASTRA 2F                
1 38778U 12051A   26115.78658564  .00000136  00000+0  00000+0 0  9994
2 38778   0.0384 250.8189 0000585  21.1254 253.2251  1.00271239 40612
SES-6                   
1 39172U 13026A   26115.84430588 -.00000275  00000+0  00000+0 0  9992
2 39172   0.0243 341.5646 0002378  56.7305  79.0035  1.00271216 47205
O3B FM5                 
1 39188U 13031A   26115.66874571 -.00000027  00000+0  00000+0 0  9994
2 39188   0.1023   0.2289 0003142  23.5681 336.2158  5.00116470234419
O3B FM4                 
1 39189U 13031B   26115.58814672 -.00000027  00000+0  00000+0 0  9992
2 39189   0.0495 345.9615 0005144  48.3614 325.7086  5.00115164234411
O3B FM2                 
1 39190U 13031C   26115.65374149 -.00000027  00000+0  00000+0 0  9992
2 39190   0.0473 339.2136 0002788  53.0257 327.7759  5.00115967234487
O3B PFM                 
1 39191U 13031D   26113.46906767 -.00000026  00000+0  00000+0 0  9996
2 39191   0.0700 358.7224 0004841  42.5713 318.7416  5.00115912233936
ASTRA 2E                
1 39285U 13056A   26115.78667229  .00000137  00000+0  00000+0 0  9993
2 39285   0.0616   5.2399 0002322  30.0620 130.2150  1.00272069 45895
SES-8                   
1 39460U 13071A   26115.87316801 -.00000283  00000+0  00000+0 0  9995
2 39460   0.0168 261.0038 0002370 150.4716 211.7539  1.00272173 43902
ASTRA 5B                
1 39617U 14011B   26115.78563229  .00000123  00000+0  00000+0 0  9994
2 39617   0.0696 306.3881 0002691  64.5101 149.2289  1.00269121 44143
O3B FM3                 
1 40079U 14038A   26115.53461705 -.00000027  00000+0  00000+0 0  9990
2 40079   0.0515 355.3020 0001396 105.0225 259.6893  5.00115585210415
O3B FM7                 
1 40080U 14038B   26115.08093563 -.00000027  00000+0  00000+0 0  9995
2 40080   0.0544 347.6471 0004218  28.2337 344.1306  5.00115615215226
O3B FM6                 
1 40081U 14038C   26115.70760148 -.00000027  00000+0  00000+0 0  9995
2 40081   0.0521 352.0239 0002643  41.6225 326.3686  5.00115683215205
O3B FM8                 
1 40082U 14038D   26114.96132753 -.00000027  00000+0  00000+0 0  9998
2 40082   0.0525 351.0264 0002705  46.0546 322.9359  5.00115952215287
